[{"OBJECT_NAME":"TEVEL2-1","OBJECT_ID":"2025-052H","EPOCH":"2026-03-09T15:32:51.927072","MEAN_MOTION":15.30341923,"ECCENTRICITY":0.0004767,"INCLINATION":97.3991,"RA_OF_ASC_NODE":324.7682,"ARG_OF_PERICENTER":104.8919,"MEAN_ANOMALY":255.2849,"EPHEMERIS_TYPE":0,"CLASSIFICATION_TYPE":"U","NORAD_CAT_ID":63217,"ELEMENT_SET_NO":999,"REV_AT_EPOCH":5485,"BSTAR":0.000706,"MEAN_MOTION_DOT":0.00020683,"MEAN_MOTION_DDOT":0},{"OBJECT_NAME":"STARLINK-34114","OBJECT_ID":"2025-095R","EPOCH":"2026-03-08T09:10:51.516480","MEAN_MOTION":15.2760225,"ECCENTRICITY":8.94e-5,"INCLINATION":43.0021,"RA_OF_ASC_NODE":183.9699,"ARG_OF_PERICENTER":231.7805,"MEAN_ANOMALY":128.2966,"EPHEMERIS_TYPE":0,"CLASSIFICATION_TYPE":"U","NORAD_CAT_ID":63905,"ELEMENT_SET_NO":999,"REV_AT_EPOCH":4757,"BSTAR":0.0013938171,"MEAN_MOTION_DOT":0.00038318,"MEAN_MOTION_DDOT":0}]
